COMMENT,ORIGINATOR,NORAD_CAT_ID,OBJECT_NAME,OBJECT_TYPE,CLASSIFICATION_TYPE,INTLDES,EPOCH,EPOCH_MICROSECONDS,MEAN_MOTION,ECCENTRICITY,INCLINATION,RA_OF_ASC_NODE,ARG_OF_PERICENTER,MEAN_ANOMALY,EPHEMERIS_TYPE,ELEMENT_SET_NO,REV_AT_EPOCH,BSTAR,MEAN_MOTION_DOT,MEAN_MOTION_DDOT,FILE,TLE_LINE0,TLE_LINE1,TLE_LINE2,OBJECT_ID,OBJECT_NUMBER,SEMIMAJOR_AXIS,PERIOD,APOGEE,PERIGEE,DECAYED
GENERATED VIA SPACETRACK.ORG API,18 SPCS,38778,ASTRA 2F,PAYLOAD,U,12051A,2023-05-28 02:27:42,449760,1.00272793,7.01e-05,0.046,238.0345,312.795,119.684,0,999,2993,0,1.61e-06,0,3919252,0 ASTRA 2F,1 38778U 12051A   23148.10257465  .00000161  00000-0  00000-0 0  9998,2 38778   0.0460 238.0345 0000701 312.7950 119.6840  1.00272793 29938,2012-051A,38778,42164.449,1436.082,35789.27,35783.359,0
GENERATED VIA SPACETRACK.ORG API,18 SPCS,38778,ASTRA 2F,PAYLOAD,U,12051A,2023-05-28 22:37:52,409280,1.00273144,7.38e-05,0.0445,236.6422,308.8513,68.3934,0,999,2994,0,1.63e-06,0,3919546,0 ASTRA 2F,1 38778U 12051A   23148.94296770  .00000163  00000-0  00000-0 0  9994,2 38778   0.0445 236.6422 0000738 308.8513  68.3934  1.00273144 29948,2012-051A,38778,42164.351,1436.077,35789.328,35783.104,0
GENERATED VIA SPACETRACK.ORG API,18 SPCS,38778,ASTRA 2F,PAYLOAD,U,12051A,2023-05-29 08:29:42,613152,1.00273293,7.69e-05,0.0439,236.0498,305.909,220.2945,0,999,3911,0,1.65e-06,0,3919985,0 ASTRA 2F,1 38778U 12051A   23149.35396543  .00000165  00000-0  00000+0 0  9990,2 38778   0.0439 236.0498 0000769 305.9090 220.2945  1.00273293 39116,2012-051A,38778,42164.309,1436.075,35789.417,35782.932,0
GENERATED VIA SPACETRACK.ORG API,18 SPCS,38778,ASTRA 2F,PAYLOAD,U,12051A,2023-05-29 08:29:42,613152,1.00273293,7.69e-05,0.0439,236.0498,305.909,220.2945,0,999,2994,0,1.65e-06,0,3920065,0 ASTRA 2F,1 38778U 12051A   23149.35396543  .00000165  00000-0  00000-0 0  9991,2 38778   0.0439 236.0498 0000769 305.9090 220.2945  1.00273293 29946,2012-051A,38778,42164.309,1436.075,35789.417,35782.932,0
GENERATED VIA SPACETRACK.ORG API,18 SPCS,38778,ASTRA 2F,PAYLOAD,U,12051A,2023-05-29 21:37:42,559392,1.00273521,7.94e-05,0.0432,234.9472,304.4823,60.3664,0,999,2995,0,1.66e-06,0,3920354,0 ASTRA 2F,1 38778U 12051A   23149.90118703  .00000166  00000-0  00000-0 0  9993,2 38778   0.0432 234.9472 0000794 304.4823  60.3664  1.00273521 29950,2012-051A,38778,42164.245,1436.072,35789.458,35782.762,0
GENERATED VIA SPACETRACK.ORG API,18 SPCS,38778,ASTRA 2F,PAYLOAD,U,12051A,2023-05-30 08:29:42,703872,1.00273685,8.31e-05,0.0426,234.1322,302.4714,226.6422,0,999,3912,0,1.67e-06,0,3920851,0 ASTRA 2F,1 38778U 12051A   23150.35396648  .00000167  00000-0  00000+0 0  9990,2 38778   0.0426 234.1322 0000831 302.4714 226.6422  1.00273685 39128,2012-051A,38778,42164.199,1436.07,35789.568,35782.56,0
GENERATED VIA SPACETRACK.ORG API,18 SPCS,38778,ASTRA 2F,PAYLOAD,U,12051A,2023-05-30 08:29:42,703872,1.00273685,8.31e-05,0.0426,234.1322,302.4714,226.6422,0,999,2995,0,1.67e-06,0,3920920,0 ASTRA 2F,1 38778U 12051A   23150.35396648  .00000167  00000-0  00000-0 0  9991,2 38778   0.0426 234.1322 0000831 302.4714 226.6422  1.00273685 29958,2012-051A,38778,42164.199,1436.07,35789.568,35782.56,0
GENERATED VIA SPACETRACK.ORG API,18 SPCS,38778,ASTRA 2F,PAYLOAD,U,12051A,2023-05-30 14:10:05,645568,1.00273781,8.44e-05,0.0425,233.3536,302.0107,313.2116,0,999,2996,0,1.68e-06,0,3921192,0 ASTRA 2F,1 38778U 12051A   23150.59034312  .00000168  00000-0  00000-0 0  9995,2 38778   0.0425 233.3536 0000844 302.0107 313.2116  1.00273781 29962,2012-051A,38778,42164.172,1436.068,35789.596,35782.479,0
GENERATED VIA SPACETRACK.ORG API,18 SPCS,38778,ASTRA 2F,PAYLOAD,U,12051A,2023-05-31 02:26:02,541120,1.00271955,0.0001351,0.0758,254.4703,277.4509,141.151,0,999,3913,0,1.69e-06,0,3921451,0 ASTRA 2F,1 38778U 12051A   23151.10141830  .00000169  00000-0  00000+0 0  9997,2 38778   0.0758 254.4703 0001351 277.4509 141.1510  1.00271955 39133,2012-051A,38778,42164.684,1436.094,35792.246,35780.853,0
GENERATED VIA SPACETRACK.ORG API,18 SPCS,38778,ASTRA 2F,PAYLOAD,U,12051A,2023-05-31 12:32:02,853600,1.00272112,0.0001396,0.0749,254.2134,275.9503,294.8246,0,999,2996,0,1.7e-06,0,3921767,0 ASTRA 2F,1 38778U 12051A   23151.52225525  .00000170  00000-0  00000-0 0  9990,2 38778   0.0749 254.2134 0001396 275.9503 294.8246  1.00272112 29963,2012-051A,38778,42164.64,1436.092,35792.391,35780.619,0
GENERATED VIA SPACETRACK.ORG API,18 SPCS,38778,ASTRA 2F,PAYLOAD,U,12051A,2023-05-31 21:30:42,806592,1.0027223,0.0001416,0.0741,254.0495,275.2348,70.7399,0,999,2997,0,1.7e-06,0,3922037,0 ASTRA 2F,1 38778U 12051A   23151.89632878  .00000170  00000-0  00000-0 0  9993,2 38778   0.0741 254.0495 0001416 275.2348  70.7399  1.00272230 29978,2012-051A,38778,42164.607,1436.091,35792.443,35780.502,0
GENERATED VIA SPACETRACK.ORG API,18 SPCS,38778,ASTRA 2F,PAYLOAD,U,12051A,2023-06-01 05:44:12,53760,1.00272349,0.000145,0.0735,253.8133,274.8117,195.1098,0,999,2997,0,1.71e-06,0,3922365,0 ASTRA 2F,1 38778U 12051A   23152.23902840  .00000171  00000-0  00000-0 0  9992,2 38778   0.0735 253.8133 0001450 274.8117 195.1098  1.00272349 29973,2012-051A,38778,42164.574,1436.089,35792.553,35780.325,0
GENERATED VIA SPACETRACK.ORG API,18 SPCS,38778,ASTRA 2F,PAYLOAD,U,12051A,2023-06-01 05:44:12,53760,1.00272349,0.000145,0.0735,253.8133,274.8117,195.1098,0,999,3914,0,1.71e-06,0,3922538,0 ASTRA 2F,1 38778U 12051A   23152.23902840  .00000171  00000-0  00000+0 0  9991,2 38778   0.0735 253.8133 0001450 274.8117 195.1098  1.00272349 39143,2012-051A,38778,42164.574,1436.089,35792.553,35780.325,0
GENERATED VIA SPACETRACK.ORG API,18 SPCS,38778,ASTRA 2F,PAYLOAD,U,12051A,2023-06-02 09:05:42,717696,1.00268627,6.48e-05,0.071,253.0222,264.767,257.4237,0,999,3915,0,1.71e-06,0,3923246,0 ASTRA 2F,1 38778U 12051A   23153.37896664  .00000171  00000-0  00000+0 0  9993,2 38778   0.0710 253.0222 0000648 264.7670 257.4237  1.00268627 39159,2012-051A,38778,42165.617,1436.142,35790.215,35784.75,0
GENERATED VIA SPACETRACK.ORG API,18 SPCS,38778,ASTRA 2F,PAYLOAD,U,12051A,2023-06-02 12:42:09,969984,1.00268682,6.68e-05,0.0707,252.7796,264.542,312.1512,0,999,2999,0,1.7e-06,0,3923342,0 ASTRA 2F,1 38778U 12051A   23153.52928206  .00000170  00000-0  00000-0 0  9998,2 38778   0.0707 252.7796 0000668 264.5420 312.1512  1.00268682 29997,2012-051A,38778,42165.602,1436.141,35790.284,35784.65,0
GENERATED VIA SPACETRACK.ORG API,18 SPCS,38778,ASTRA 2F,PAYLOAD,U,12051A,2023-06-02 17:56:45,779712,1.00268702,6.69e-05,0.0703,252.684,263.7471,31.9038,0,999,2999,0,1.7e-06,0,3923570,0 ASTRA 2F,1 38778U 12051A   23153.74775208  .00000170  00000-0  00000-0 0  9994,2 38778   0.0703 252.6840 0000669 263.7471  31.9038  1.00268702 29992,2012-051A,38778,42165.596,1436.141,35790.282,35784.64,0
GENERATED VIA SPACETRACK.ORG API,18 SPCS,38778,ASTRA 2F,PAYLOAD,U,12051A,2023-06-03 09:03:42,916320,1.00268937,7.27e-05,0.0689,252.0629,263.7976,259.827,0,999,2999,0,1.69e-06,0,3924076,0 ASTRA 2F,1 38778U 12051A   23154.37758005  .00000169  00000-0  00000-0 0  9998,2 38778   0.0689 252.0629 0000727 263.7976 259.8270  1.00268937 29998,2012-051A,38778,42165.53,1436.138,35790.461,35784.33,0
GENERATED VIA SPACETRACK.ORG API,18 SPCS,38778,ASTRA 2F,PAYLOAD,U,12051A,2023-06-03 18:41:42,607104,1.00269089,7.62e-05,0.0681,251.6544,263.3795,45.5438,0,999,3916,0,1.68e-06,0,3924275,0 ASTRA 2F,1 38778U 12051A   23154.77896536  .00000168  00000-0  00000+0 0  9992,2 38778   0.0681 251.6544 0000762 263.3795  45.5438  1.00269089 39160,2012-051A,38778,42165.488,1436.136,35790.566,35784.14,0
GENERATED VIA SPACETRACK.ORG API,18 SPCS,38778,ASTRA 2F,PAYLOAD,U,12051A,2023-06-03 22:22:42,789216,1.0026914,7.72e-05,0.0677,251.3943,263.1316,101.4525,0,999,3000,0,1.68e-06,0,3924324,0 ASTRA 2F,1 38778U 12051A   23154.93243969  .00000168  00000-0  00000-0 0  9997,2 38778   0.0677 251.3943 0000772 263.1316 101.4525  1.00269140 30004,2012-051A,38778,42165.473,1436.135,35790.594,35784.083,0
GENERATED VIA SPACETRACK.ORG API,18 SPCS,38778,ASTRA 2F,PAYLOAD,U,12051A,2023-06-04 12:52:21,9792,1.00269363,8.33e-05,0.0665,250.5885,264.8124,318.5766,0,999,3001,0,1.66e-06,0,3924842,0 ASTRA 2F,1 38778U 12051A   23155.53635428  .00000166  00000-0  00000-0 0  9997,2 38778   0.0665 250.5885 0000833 264.8124 318.5766  1.00269363 30016,2012-051A,38778,42165.411,1436.132,35790.788,35783.764,0
GENERATED VIA SPACETRACK.ORG API,18 SPCS,38778,ASTRA 2F,PAYLOAD,U,12051A,2023-06-04 18:51:42,579072,1.00269457,8.54e-05,0.066,250.4473,264.6094,49.0046,0,999,3917,0,1.65e-06,0,3925083,0 ASTRA 2F,1 38778U 12051A   23155.78590948  .00000165  00000-0  00000+0 0  9999,2 38778   0.0660 250.4473 0000854 264.6094  49.0046  1.00269457 39177,2012-051A,38778,42165.385,1436.13,35790.851,35783.649,0
GENERATED VIA SPACETRACK.ORG API,18 SPCS,38778,ASTRA 2F,PAYLOAD,U,12051A,2023-06-04 21:28:28,217856,1.00269498,8.64e-05,0.0657,250.23,264.574,88.5541,0,999,3001,0,1.64e-06,0,3925173,0 ASTRA 2F,1 38778U 12051A   23155.89477104  .00000164  00000-0  00000-0 0  9999,2 38778   0.0657 250.2300 0000864 264.5740  88.5541  1.00269498 30015,2012-051A,38778,42165.373,1436.13,35790.881,35783.595,0
GENERATED VIA SPACETRACK.ORG API,18 SPCS,38778,ASTRA 2F,PAYLOAD,U,12051A,2023-06-05 06:22:42,856320,1.00269633,8.93e-05,0.065,249.8087,265.508,221.9654,0,999,3001,0,1.63e-06,0,3925691,0 ASTRA 2F,1 38778U 12051A   23156.26577380  .00000163  00000-0  00000-0 0  9997,2 38778   0.0650 249.8087 0000893 265.5080 221.9654  1.00269633 30013,2012-051A,38778,42165.335,1436.128,35790.966,35783.435,0
GENERATED VIA SPACETRACK.ORG API,18 SPCS,38778,ASTRA 2F,PAYLOAD,U,12051A,2023-06-05 21:33:39,559392,1.00269882,9.46e-05,0.0635,248.8055,267.2233,89.6086,0,999,3002,0,1.6e-06,0,3925751,0 ASTRA 2F,1 38778U 12051A   23156.89837453  .00000160  00000-0  00000-0 0  9993,2 38778   0.0635 248.8055 0000946 267.2233  89.6086  1.00269882 30023,2012-051A,38778,42165.265,1436.124,35791.119,35783.142,0
